QIANFAN-81              
1 63167U 25046J   25336.12016068  .00000135  00000+0  19058-3 0  9997
2 63167  88.9754 320.9718 0015563 145.2243 214.9928 13.50998806 46056
QIANFAN-82              
1 63168U 25046K   25336.07993881  .00000087  00000+0  11584-3 0  9991
2 63168  88.9755 321.0198 0013489 151.8980 208.2902 13.50972626 46036
QIANFAN-83              
1 63169U 25046L   25336.11962596  .00000071  00000+0  75518-4 0  9997
2 63169  88.9755 320.8129 0015194 139.0403 221.1899 13.61970741 46151
QIANFAN-84              
1 63170U 25046M   25336.10783053 -.00000016  00000+0 -43418-4 0  9992
2 63170  88.9751 321.1498 0016516 150.0150 210.1951 13.50984798 45963
QIANFAN-85              
1 63171U 25046N   25336.10450543  .00000121  00000+0  16850-3 0  9992
2 63171  88.9754 321.0217 0013876 150.8381 209.3548 13.50972725 46033
QIANFAN-86              
1 63172U 25046P   25336.11283354  .00000105  00000+0  14324-3 0  9994
2 63172  88.9756 320.8828 0011644 153.5603 206.6144 13.50972810 46115
QIANFAN-87              
1 63173U 25046Q   25336.08414902  .00000041  00000+0  44573-4 0  9995
2 63173  88.9752 320.9979 0012428 149.6600 210.5273 13.50971509 46047
QIANFAN-88              
1 63174U 25046R   25336.10052630  .00000094  00000+0  12744-3 0  9997
2 63174  88.9755 320.9504 0012587 157.4421 202.7286 13.50977398 46071
